GSAT0212 (GALILEO 16)
1 41860U 16069B   25327.29491401  .00000036  00000+0  00000+0 0  9997
2 41860  55.3681 106.7842 0002382  38.5768 321.4050  1.70474566 56140